[{"CCSDS_OMM_VERS":"2.0","COMMENT":"GENERATED VIA SPACE-TRACK.ORG API","CREATION_DATE":"2021-04-12T14:26:12","ORIGINATOR":"18 SPCS","OBJECT_NAME":"ONEWEB-0135","OBJECT_ID":"2020-100Z","CENTER_NAME":"EARTH","REF_FRAME":"TEME","TIME_SYSTEM":"UTC","MEAN_ELEMENT_THEORY":"SGP4","EPOCH":"2021-04-12T14:00:01.999872","MEAN_MOTION":"13.28479485","ECCENTRICITY":"0.00016640","INCLINATION":"87.9569","RA_OF_ASC_NODE":"6.7342","ARG_OF_PERICENTER":"84.8257","MEAN_ANOMALY":"306.5556","EPHEMERIS_TYPE":"0","CLASSIFICATION_TYPE":"U","NORAD_CAT_ID":"47281","ELEMENT_SET_NO":"999","REV_AT_EPOCH":"1660","BSTAR":"0.00000000000000","MEAN_MOTION_DOT":"0.00000013","MEAN_MOTION_DDOT":"0.0000000000000","SEMIMAJOR_AXIS":"7530.641","PERIOD":"108.395","APOAPSIS":"1153.759","PERIAPSIS":"1151.253","OBJECT_TYPE":"PAYLOAD","RCS_SIZE":"LARGE","COUNTRY_CODE":"UK","LAUNCH_DATE":"2020-12-18","SITE":"VOSTO","DECAY_DATE":null,"FILE":"3016074","GP_ID":"175408051","TLE_LINE0":"0 ONEWEB-0135","TLE_LINE1":"1 47281U 20100Z   21102.58335648  .00000013  00000-0  00000+0 0  9996","TLE_LINE2":"2 47281  87.9569   6.7342 0001664  84.8257 306.5556 13.28479485 16605"},{"CCSDS_OMM_VERS":"2.0","COMMENT":"GENERATED VIA SPACE-TRACK.ORG API","CREATION_DATE":"2021-04-12T22:26:12","ORIGINATOR":"18 SPCS","OBJECT_NAME":"ONEWEB-0135","OBJECT_ID":"2020-100Z","CENTER_NAME":"EARTH","REF_FRAME":"TEME","TIME_SYSTEM":"UTC","MEAN_ELEMENT_THEORY":"SGP4","EPOCH":"2021-04-12T22:00:00.999936","MEAN_MOTION":"13.27608664","ECCENTRICITY":"0.00018510","INCLINATION":"87.9530","RA_OF_ASC_NODE":"6.6675","ARG_OF_PERICENTER":"85.3659","MEAN_ANOMALY":"98.6813","EPHEMERIS_TYPE":"0","CLASSIFICATION_TYPE":"U","NORAD_CAT_ID":"47281","ELEMENT_SET_NO":"999","REV_AT_EPOCH":"1665","BSTAR":"0.00000000000000","MEAN_MOTION_DOT":"0.00000013","MEAN_MOTION_DDOT":"0.0000000000000","SEMIMAJOR_AXIS":"7533.934","PERIOD":"108.466","APOAPSIS":"1157.193","PERIAPSIS":"1154.404","OBJECT_TYPE":"PAYLOAD","RCS_SIZE":"LARGE","COUNTRY_CODE":"UK","LAUNCH_DATE":"2020-12-18","SITE":"VOSTO","DECAY_DATE":null,"FILE":"3016310","GP_ID":"175434554","TLE_LINE0":"0 ONEWEB-0135","TLE_LINE1":"1 47281U 20100Z   21102.91667824  .00000013  00000-0  00000+0 0  9997","TLE_LINE2":"2 47281  87.9530   6.6675 0001851  85.3659  98.6813 13.27608664 16653"},{"CCSDS_OMM_VERS":"2.0","COMMENT":"GENERATED VIA SPACE-TRACK.ORG API","CREATION_DATE":"2021-04-13T06:36:13","ORIGINATOR":"18 SPCS","OBJECT_NAME":"ONEWEB-0135","OBJECT_ID":"2020-100Z","CENTER_NAME":"EARTH","REF_FRAME":"TEME","TIME_SYSTEM":"UTC","MEAN_ELEMENT_THEORY":"SGP4","EPOCH":"2021-04-13T06:00:00.999648","MEAN_MOTION":"13.26701634","ECCENTRICITY":"0.00016360","INCLINATION":"87.9493","RA_OF_ASC_NODE":"6.6015","ARG_OF_PERICENTER":"84.6279","MEAN_ANOMALY":"251.0880","EPHEMERIS_TYPE":"0","CLASSIFICATION_TYPE":"U","NORAD_CAT_ID":"47281","ELEMENT_SET_NO":"999","REV_AT_EPOCH":"1669","BSTAR":"0.00000000000000","MEAN_MOTION_DOT":"0.00000013","MEAN_MOTION_DDOT":"0.0000000000000","SEMIMAJOR_AXIS":"7537.367","PERIOD":"108.540","APOAPSIS":"1160.465","PERIAPSIS":"1157.999","OBJECT_TYPE":"PAYLOAD","RCS_SIZE":"LARGE","COUNTRY_CODE":"UK","LAUNCH_DATE":"2020-12-18","SITE":"VOSTO","DECAY_DATE":null,"FILE":"3016739","GP_ID":"175444285","TLE_LINE0":"0 ONEWEB-0135","TLE_LINE1":"1 47281U 20100Z   21103.25001157  .00000013  00000-0  00000+0 0  9996","TLE_LINE2":"2 47281  87.9493   6.6015 0001636  84.6279 251.0880 13.26701634 16693"},{"CCSDS_OMM_VERS":"2.0","COMMENT":"GENERATED VIA SPACE-TRACK.ORG API","CREATION_DATE":"2021-04-13T14:26:12","ORIGINATOR":"18 SPCS","OBJECT_NAME":"ONEWEB-0135","OBJECT_ID":"2020-100Z","CENTER_NAME":"EARTH","REF_FRAME":"TEME","TIME_SYSTEM":"UTC","MEAN_ELEMENT_THEORY":"SGP4","EPOCH":"2021-04-13T14:00:03.000384","MEAN_MOTION":"13.25791657","ECCENTRICITY":"0.00019660","INCLINATION":"87.9454","RA_OF_ASC_NODE":"6.5361","ARG_OF_PERICENTER":"82.0906","MEAN_ANOMALY":"44.3443","EPHEMERIS_TYPE":"0","CLASSIFICATION_TYPE":"U","NORAD_CAT_ID":"47281","ELEMENT_SET_NO":"999","REV_AT_EPOCH":"1674","BSTAR":"0.00000000000000","MEAN_MOTION_DOT":"0.00000013","MEAN_MOTION_DDOT":"0.0000000000000","SEMIMAJOR_AXIS":"7540.816","PERIOD":"108.614","APOAPSIS":"1164.163","PERIAPSIS":"1161.198","OBJECT_TYPE":"PAYLOAD","RCS_SIZE":"LARGE","COUNTRY_CODE":"UK","LAUNCH_DATE":"2020-12-18","SITE":"VOSTO","DECAY_DATE":null,"FILE":"3017168","GP_ID":"175454354","TLE_LINE0":"0 ONEWEB-0135","TLE_LINE1":"1 47281U 20100Z   21103.58336806  .00000013  00000-0  00000+0 0  9994","TLE_LINE2":"2 47281  87.9454   6.5361 0001966  82.0906  44.3443 13.25791657 16745"},{"CCSDS_OMM_VERS":"2.0","COMMENT":"GENERATED VIA SPACE-TRACK.ORG API","CREATION_DATE":"2021-04-13T22:26:12","ORIGINATOR":"18 SPCS","OBJECT_NAME":"ONEWEB-0135","OBJECT_ID":"2020-100Z","CENTER_NAME":"EARTH","REF_FRAME":"TEME","TIME_SYSTEM":"UTC","MEAN_ELEMENT_THEORY":"SGP4","EPOCH":"2021-04-13T20:00:01.000224","MEAN_MOTION":"13.25173411","ECCENTRICITY":"0.00017940","INCLINATION":"87.9427","RA_OF_ASC_NODE":"6.4861","ARG_OF_PERICENTER":"87.1665","MEAN_ANOMALY":"151.3985","EPHEMERIS_TYPE":"0","CLASSIFICATION_TYPE":"U","NORAD_CAT_ID":"47281","ELEMENT_SET_NO":"999","REV_AT_EPOCH":"1677","BSTAR":"0.00000000000000","MEAN_MOTION_DOT":"0.00000013","MEAN_MOTION_DDOT":"0.0000000000000","SEMIMAJOR_AXIS":"7543.161","PERIOD":"108.665","APOAPSIS":"1166.379","PERIAPSIS":"1163.673","OBJECT_TYPE":"PAYLOAD","RCS_SIZE":"LARGE","COUNTRY_CODE":"UK","LAUNCH_DATE":"2020-12-18","SITE":"VOSTO","DECAY_DATE":null,"FILE":"3017365","GP_ID":"175458149","TLE_LINE0":"0 ONEWEB-0135","TLE_LINE1":"1 47281U 20100Z   21103.83334491  .00000013  00000-0  00000+0 0  9990","TLE_LINE2":"2 47281  87.9427   6.4861 0001794  87.1665 151.3985 13.25173411 16771"},{"CCSDS_OMM_VERS":"2.0","COMMENT":"GENERATED VIA SPACE-TRACK.ORG API","CREATION_DATE":"2021-04-14T06:36:11","ORIGINATOR":"18 SPCS","OBJECT_NAME":"ONEWEB-0135","OBJECT_ID":"2020-100Z","CENTER_NAME":"EARTH","REF_FRAME":"TEME","TIME_SYSTEM":"UTC","MEAN_ELEMENT_THEORY":"SGP4","EPOCH":"2021-04-14T06:00:02.000160","MEAN_MOTION":"13.23927394","ECCENTRICITY":"0.00017330","INCLINATION":"87.9386","RA_OF_ASC_NODE":"6.4032","ARG_OF_PERICENTER":"86.1224","MEAN_ANOMALY":"338.2782","EPHEMERIS_TYPE":"0","CLASSIFICATION_TYPE":"U","NORAD_CAT_ID":"47281","ELEMENT_SET_NO":"999","REV_AT_EPOCH":"1682","BSTAR":"0.00000000000000","MEAN_MOTION_DOT":"0.00000013","MEAN_MOTION_DDOT":"0.0000000000000","SEMIMAJOR_AXIS":"7547.893","PERIOD":"108.767","APOAPSIS":"1171.066","PERIAPSIS":"1168.450","OBJECT_TYPE":"PAYLOAD","RCS_SIZE":"LARGE","COUNTRY_CODE":"UK","LAUNCH_DATE":"2020-12-18","SITE":"VOSTO","DECAY_DATE":null,"FILE":"3017551","GP_ID":"175461649","TLE_LINE0":"0 ONEWEB-0135","TLE_LINE1":"1 47281U 20100Z   21104.25002315  .00000013  00000-0  00000+0 0  9994","TLE_LINE2":"2 47281  87.9386   6.4032 0001733  86.1224 338.2782 13.23927394 16820"},{"CCSDS_OMM_VERS":"2.0","COMMENT":"GENERATED VIA SPACE-TRACK.ORG API","CREATION_DATE":"2021-04-14T18:24:19","ORIGINATOR":"18 SPCS","OBJECT_NAME":"ONEWEB-0135","OBJECT_ID":"2020-100Z","CENTER_NAME":"EARTH","REF_FRAME":"TEME","TIME_SYSTEM":"UTC","MEAN_ELEMENT_THEORY":"SGP4","EPOCH":"2021-04-14T14:00:01.000224","MEAN_MOTION":"13.23197175","ECCENTRICITY":"0.00017170","INCLINATION":"87.9384","RA_OF_ASC_NODE":"6.3377","ARG_OF_PERICENTER":"89.5719","MEAN_ANOMALY":"122.1646","EPHEMERIS_TYPE":"0","CLASSIFICATION_TYPE":"U","NORAD_CAT_ID":"47281","ELEMENT_SET_NO":"999","REV_AT_EPOCH":"171","BSTAR":"0.11096000000000","MEAN_MOTION_DOT":"0.00047028","MEAN_MOTION_DDOT":"0.0000000000000","SEMIMAJOR_AXIS":"7550.670","PERIOD":"108.827","APOAPSIS":"1173.831","PERIAPSIS":"1171.238","OBJECT_TYPE":"PAYLOAD","RCS_SIZE":"LARGE","COUNTRY_CODE":"UK","LAUNCH_DATE":"2020-12-18","SITE":"VOSTO","DECAY_DATE":null,"FILE":"3018026","GP_ID":"175495070","TLE_LINE0":"0 ONEWEB-0135","TLE_LINE1":"1 47281U 20100Z   21104.58334491  .00047028  00000-0  11096+0 0  9997","TLE_LINE2":"2 47281  87.9384   6.3377 0001717  89.5719 122.1646 13.23197175  1714"},{"CCSDS_OMM_VERS":"2.0","COMMENT":"GENERATED VIA SPACE-TRACK.ORG API","CREATION_DATE":"2021-04-14T14:46:11","ORIGINATOR":"18 SPCS","OBJECT_NAME":"ONEWEB-0135","OBJECT_ID":"2020-100Z","CENTER_NAME":"EARTH","REF_FRAME":"TEME","TIME_SYSTEM":"UTC","MEAN_ELEMENT_THEORY":"SGP4","EPOCH":"2021-04-14T14:00:01.000224","MEAN_MOTION":"13.23197175","ECCENTRICITY":"0.00017170","INCLINATION":"87.9384","RA_OF_ASC_NODE":"6.3377","ARG_OF_PERICENTER":"89.5719","MEAN_ANOMALY":"122.1646","EPHEMERIS_TYPE":"0","CLASSIFICATION_TYPE":"U","NORAD_CAT_ID":"47281","ELEMENT_SET_NO":"999","REV_AT_EPOCH":"1687","BSTAR":"0.11096000000000","MEAN_MOTION_DOT":"0.00047028","MEAN_MOTION_DDOT":"0.0000000000000","SEMIMAJOR_AXIS":"7550.670","PERIOD":"108.827","APOAPSIS":"1173.831","PERIAPSIS":"1171.238","OBJECT_TYPE":"PAYLOAD","RCS_SIZE":"LARGE","COUNTRY_CODE":"UK","LAUNCH_DATE":"2020-12-18","SITE":"VOSTO","DECAY_DATE":null,"FILE":"3017823","GP_ID":"175468160","TLE_LINE0":"0 ONEWEB-0135","TLE_LINE1":"1 47281U 20100Z   21104.58334491  .00047028  00000-0  11096+0 0  9997","TLE_LINE2":"2 47281  87.9384   6.3377 0001717  89.5719 122.1646 13.23197175 16877"}]